HST                     
1 20580U 90037B   26068.15977042  .00009063  00000+0  30023-3 0  9999
2 20580  28.4717  43.6133 0001837 120.9992 239.0785 15.29473555773239
STARLINK-35433          
1 65870U 25223S   26068.85830157  .00045617  00000+0  15415-2 0  9999
2 65870  53.1583 293.2368 0000907 114.0354 246.0741 15.30228177 24242
